STARLINK-32587          
1 62180U 24225T   25283.18765515  .00005414  00000+0  46102-3 0  9999
2 62180  70.0021 183.7426 0002881 270.7730  89.3099 14.98340962 47336
STARLINK-32602          
1 62181U 24225U   25283.13938378 -.00010570  00000+0 -87948-3 0  9998
2 62181  69.9997 174.0584 0002337 299.8756  60.2171 14.98328304 47571
STARLINK-32565          
1 62182U 24225V   25283.10420265  .00001209  00000+0  10915-3 0  9994
2 62182  70.0021 183.9457 0002542 265.9999  94.0870 14.98324811 47325
STARLINK-32589          
1 62183U 24225W   25283.10406328  .00000444  00000+0  45024-4 0  9999
2 62183  70.0019 184.3413 0002666 268.7529  91.3324 14.98323018 47318
STARLINK-32581          
1 62184U 24225X   25283.12270454  .00004687  00000+0  40041-3 0  9997
2 62184  70.0011 173.9969 0002975 270.8151  89.2668 14.98326213 47574
STARLINK-32686          
1 62192U 24229A   25283.30288113  .00036632  00000+0  13336-2 0  9992
2 62192  43.0010  36.3940 0001139 209.7168 150.3620 15.27591539 47603
STARLINK-32688          
1 62193U 24229B   25283.32040035  .00055628  00000+0  20141-2 0  9992
2 62193  43.0037  39.9822 0001031 229.9099 130.1662 15.27607884 47567
STARLINK-32684          
1 62194U 24229C   25282.37926752  .00025658  00000+0  93995-3 0  9994
2 62194  43.0039  44.9612 0001645 250.5932 109.4742 15.27535111 48607
STARLINK-32672          
1 62195U 24229D   25282.39340051  .00022582  00000+0  82835-3 0  9993
2 62195  43.0032  45.0651 0001334 247.5770 112.4940 15.27551330 47421
STARLINK-32682          
1 62196U 24229E   25283.29626310  .00023672  00000+0  86630-3 0  9997
2 62196  43.0035   7.3831 0001278 252.0209 108.0503 15.27605884 47937
STARLINK-32663          
1 62197U 24229F   25282.36144080  .00027200  00000+0  99422-3 0  9998
2 62197  42.9976  45.6799 0000667 331.8943  28.1872 15.27583391 47412
STARLINK-32640          
1 62198U 24229G   25283.30111161  .00028103  00000+0  10267-2 0  9990
2 62198  43.0025  39.8381 0001449 249.8045 110.2651 15.27584921 47566
STARLINK-32653          
1 62199U 24229H   25283.32263461  .00026693  00000+0  97588-3 0  9998
2 62199  43.0015  33.0294 0001011 272.3009  87.7727 15.27585309 47643
STARLINK-32647          
1 62200U 24229J   25283.32294290  .00031651  00000+0  11550-2 0  9999
2 62200  43.0052  39.9973 0001733 264.3847  95.6807 15.27573642 47563
STARLINK-32667          
1 62201U 24229K   25282.76388115  .00049953  00000+0  18125-2 0  9996
2 62201  42.9998  42.6882 0000931 305.4093  54.6672 15.27580335 47483
STARLINK-32655          
1 62202U 24229L   25282.68063601  .00031046  00000+0  11324-2 0  9996
2 62202  43.0051  43.7767 0002107 264.6226  95.4386 15.27594999 47465
