[{"OBJECT_NAME":"STARLINK-32587","OBJECT_ID":"2024-225T","EPOCH":"2025-10-10T04:30:13.404960","MEAN_MOTION":14.98340962,"ECCENTRICITY":0.00028815,"INCLINATION":70.0021,"RA_OF_ASC_NODE":183.7426,"ARG_OF_PERICENTER":270.773,"MEAN_ANOMALY":89.3099,"EPHEMERIS_TYPE":0,"CLASSIFICATION_TYPE":"U","NORAD_CAT_ID":62180,"ELEMENT_SET_NO":999,"REV_AT_EPOCH":4733,"BSTAR":0.00046102052,"MEAN_MOTION_DOT":5.414e-5,"MEAN_MOTION_DDOT":0},{"OBJECT_NAME":"STARLINK-32602","OBJECT_ID":"2024-225U","EPOCH":"2025-10-10T03:20:42.758592","MEAN_MOTION":14.98328304,"ECCENTRICITY":0.00023372,"INCLINATION":69.9997,"RA_OF_ASC_NODE":174.0584,"ARG_OF_PERICENTER":299.8756,"MEAN_ANOMALY":60.2171,"EPHEMERIS_TYPE":0,"CLASSIFICATION_TYPE":"U","NORAD_CAT_ID":62181,"ELEMENT_SET_NO":999,"REV_AT_EPOCH":4757,"BSTAR":-0.00087948394,"MEAN_MOTION_DOT":-0.0001057,"MEAN_MOTION_DDOT":0},{"OBJECT_NAME":"STARLINK-32565","OBJECT_ID":"2024-225V","EPOCH":"2025-10-10T02:30:03.108960","MEAN_MOTION":14.98324811,"ECCENTRICITY":0.0002542,"INCLINATION":70.0021,"RA_OF_ASC_NODE":183.9457,"ARG_OF_PERICENTER":265.9999,"MEAN_ANOMALY":94.087,"EPHEMERIS_TYPE":0,"CLASSIFICATION_TYPE":"U","NORAD_CAT_ID":62182,"ELEMENT_SET_NO":999,"REV_AT_EPOCH":4732,"BSTAR":0.00010914757,"MEAN_MOTION_DOT":1.209e-5,"MEAN_MOTION_DDOT":0},{"OBJECT_NAME":"STARLINK-32589","OBJECT_ID":"2024-225W","EPOCH":"2025-10-10T02:29:51.067392","MEAN_MOTION":14.98323018,"ECCENTRICITY":0.00026661,"INCLINATION":70.0019,"RA_OF_ASC_NODE":184.3413,"ARG_OF_PERICENTER":268.7529,"MEAN_ANOMALY":91.3324,"EPHEMERIS_TYPE":0,"CLASSIFICATION_TYPE":"U","NORAD_CAT_ID":62183,"ELEMENT_SET_NO":999,"REV_AT_EPOCH":4731,"BSTAR":4.5023683e-5,"MEAN_MOTION_DOT":4.44e-6,"MEAN_MOTION_DDOT":0},{"OBJECT_NAME":"STARLINK-32581","OBJECT_ID":"2024-225X","EPOCH":"2025-10-10T02:56:41.672256","MEAN_MOTION":14.98326213,"ECCENTRICITY":0.00029752,"INCLINATION":70.0011,"RA_OF_ASC_NODE":173.9969,"ARG_OF_PERICENTER":270.8151,"MEAN_ANOMALY":89.2668,"EPHEMERIS_TYPE":0,"CLASSIFICATION_TYPE":"U","NORAD_CAT_ID":62184,"ELEMENT_SET_NO":999,"REV_AT_EPOCH":4757,"BSTAR":0.00040040843,"MEAN_MOTION_DOT":4.687e-5,"MEAN_MOTION_DDOT":0},{"OBJECT_NAME":"STARLINK-32686","OBJECT_ID":"2024-229A","EPOCH":"2025-10-10T07:16:08.929632","MEAN_MOTION":15.27591539,"ECCENTRICITY":0.00011391,"INCLINATION":43.001,"RA_OF_ASC_NODE":36.394,"ARG_OF_PERICENTER":209.7168,"MEAN_ANOMALY":150.362,"EPHEMERIS_TYPE":0,"CLASSIFICATION_TYPE":"U","NORAD_CAT_ID":62192,"ELEMENT_SET_NO":999,"REV_AT_EPOCH":4760,"BSTAR":0.0013336478,"MEAN_MOTION_DOT":0.00036632,"MEAN_MOTION_DDOT":0},{"OBJECT_NAME":"STARLINK-32688","OBJECT_ID":"2024-229B","EPOCH":"2025-10-10T07:41:22.590240","MEAN_MOTION":15.27607884,"ECCENTRICITY":0.00010313,"INCLINATION":43.0037,"RA_OF_ASC_NODE":39.9822,"ARG_OF_PERICENTER":229.9099,"MEAN_ANOMALY":130.1662,"EPHEMERIS_TYPE":0,"CLASSIFICATION_TYPE":"U","NORAD_CAT_ID":62193,"ELEMENT_SET_NO":999,"REV_AT_EPOCH":4756,"BSTAR":0.002014111,"MEAN_MOTION_DOT":0.00055628,"MEAN_MOTION_DDOT":0},{"OBJECT_NAME":"STARLINK-32684","OBJECT_ID":"2024-229C","EPOCH":"2025-10-09T09:06:08.713728","MEAN_MOTION":15.27535111,"ECCENTRICITY":0.0001645,"INCLINATION":43.0039,"RA_OF_ASC_NODE":44.9612,"ARG_OF_PERICENTER":250.5932,"MEAN_ANOMALY":109.4742,"EPHEMERIS_TYPE":0,"CLASSIFICATION_TYPE":"U","NORAD_CAT_ID":62194,"ELEMENT_SET_NO":999,"REV_AT_EPOCH":4860,"BSTAR":0.00093995,"MEAN_MOTION_DOT":0.00025658,"MEAN_MOTION_DDOT":0},{"OBJECT_NAME":"STARLINK-32672","OBJECT_ID":"2024-229D","EPOCH":"2025-10-09T09:26:29.804064","MEAN_MOTION":15.2755133,"ECCENTRICITY":0.0001334,"INCLINATION":43.0032,"RA_OF_ASC_NODE":45.0651,"ARG_OF_PERICENTER":247.577,"MEAN_ANOMALY":112.494,"EPHEMERIS_TYPE":0,"CLASSIFICATION_TYPE":"U","NORAD_CAT_ID":62195,"ELEMENT_SET_NO":999,"REV_AT_EPOCH":4742,"BSTAR":0.00082835,"MEAN_MOTION_DOT":0.00022582,"MEAN_MOTION_DDOT":0},{"OBJECT_NAME":"STARLINK-32682","OBJECT_ID":"2024-229E","EPOCH":"2025-10-10T07:06:37.131840","MEAN_MOTION":15.27605884,"ECCENTRICITY":0.0001278,"INCLINATION":43.0035,"RA_OF_ASC_NODE":7.3831,"ARG_OF_PERICENTER":252.0209,"MEAN_ANOMALY":108.0503,"EPHEMERIS_TYPE":0,"CLASSIFICATION_TYPE":"U","NORAD_CAT_ID":62196,"ELEMENT_SET_NO":999,"REV_AT_EPOCH":4793,"BSTAR":0.00086630338,"MEAN_MOTION_DOT":0.00023672,"MEAN_MOTION_DDOT":0},{"OBJECT_NAME":"STARLINK-32663","OBJECT_ID":"2024-229F","EPOCH":"2025-10-09T08:40:28.485120","MEAN_MOTION":15.27583391,"ECCENTRICITY":6.67e-5,"INCLINATION":42.9976,"RA_OF_ASC_NODE":45.6799,"ARG_OF_PERICENTER":331.8943,"MEAN_ANOMALY":28.1872,"EPHEMERIS_TYPE":0,"CLASSIFICATION_TYPE":"U","NORAD_CAT_ID":62197,"ELEMENT_SET_NO":999,"REV_AT_EPOCH":4741,"BSTAR":0.00099422,"MEAN_MOTION_DOT":0.000272,"MEAN_MOTION_DDOT":0},{"OBJECT_NAME":"STARLINK-32640","OBJECT_ID":"2024-229G","EPOCH":"2025-10-10T07:13:36.043104","MEAN_MOTION":15.27584921,"ECCENTRICITY":0.00014493,"INCLINATION":43.0025,"RA_OF_ASC_NODE":39.8381,"ARG_OF_PERICENTER":249.8045,"MEAN_ANOMALY":110.2651,"EPHEMERIS_TYPE":0,"CLASSIFICATION_TYPE":"U","NORAD_CAT_ID":62198,"ELEMENT_SET_NO":999,"REV_AT_EPOCH":4756,"BSTAR":0.0010267221,"MEAN_MOTION_DOT":0.00028103,"MEAN_MOTION_DDOT":0},{"OBJECT_NAME":"STARLINK-32653","OBJECT_ID":"2024-229H","EPOCH":"2025-10-10T07:44:35.630304","MEAN_MOTION":15.27585309,"ECCENTRICITY":0.00010117,"INCLINATION":43.0015,"RA_OF_ASC_NODE":33.0294,"ARG_OF_PERICENTER":272.3009,"MEAN_ANOMALY":87.7727,"EPHEMERIS_TYPE":0,"CLASSIFICATION_TYPE":"U","NORAD_CAT_ID":62199,"ELEMENT_SET_NO":999,"REV_AT_EPOCH":4764,"BSTAR":0.00097587567,"MEAN_MOTION_DOT":0.00026693,"MEAN_MOTION_DDOT":0},{"OBJECT_NAME":"STARLINK-32647","OBJECT_ID":"2024-229J","EPOCH":"2025-10-10T07:45:02.266560","MEAN_MOTION":15.27573642,"ECCENTRICITY":0.00017331,"INCLINATION":43.0052,"RA_OF_ASC_NODE":39.9973,"ARG_OF_PERICENTER":264.3847,"MEAN_ANOMALY":95.6807,"EPHEMERIS_TYPE":0,"CLASSIFICATION_TYPE":"U","NORAD_CAT_ID":62200,"ELEMENT_SET_NO":999,"REV_AT_EPOCH":4756,"BSTAR":0.0011549976,"MEAN_MOTION_DOT":0.00031651,"MEAN_MOTION_DDOT":0},{"OBJECT_NAME":"STARLINK-32667","OBJECT_ID":"2024-229K","EPOCH":"2025-10-09T18:19:59.331360","MEAN_MOTION":15.27580335,"ECCENTRICITY":9.31e-5,"INCLINATION":42.9998,"RA_OF_ASC_NODE":42.6882,"ARG_OF_PERICENTER":305.4093,"MEAN_ANOMALY":54.6672,"EPHEMERIS_TYPE":0,"CLASSIFICATION_TYPE":"U","NORAD_CAT_ID":62201,"ELEMENT_SET_NO":999,"REV_AT_EPOCH":4748,"BSTAR":0.0018125208,"MEAN_MOTION_DOT":0.00049953,"MEAN_MOTION_DDOT":0},{"OBJECT_NAME":"STARLINK-32655","OBJECT_ID":"2024-229L","EPOCH":"2025-10-09T16:20:06.951264","MEAN_MOTION":15.27594999,"ECCENTRICITY":0.00021078,"INCLINATION":43.0051,"RA_OF_ASC_NODE":43.7767,"ARG_OF_PERICENTER":264.6226,"MEAN_ANOMALY":95.4386,"EPHEMERIS_TYPE":0,"CLASSIFICATION_TYPE":"U","NORAD_CAT_ID":62202,"ELEMENT_SET_NO":999,"REV_AT_EPOCH":4746,"BSTAR":0.0011324327,"MEAN_MOTION_DOT":0.00031046,"MEAN_MOTION_DDOT":0}]
